{
    "links": {
        "self": "http://www.neowsapp.com/rest/v1/neo/3546699?api_key=iIulBulltgU6a56xZRHN4H3l9WmuAYTsLGpBGhQ2"
    },
    "id": "3546699",
    "neo_reference_id": "3546699",
    "name": "(2010 RD130)",
    "designation": "2010 RD130",
    "nasa_jpl_url": "http://ssd.jpl.nasa.gov/sbdb.cgi?sstr=3546699",
    "absolute_magnitude_h": 25.4,
    "estimated_diameter": {
        "kilometers": {
            "estimated_diameter_min": 0.022108281,
            "estimated_diameter_max": 0.0494356193
        },
        "meters": {
            "estimated_diameter_min": 22.1082810359,
            "estimated_diameter_max": 49.435619262
        },
        "miles": {
            "estimated_diameter_min": 0.0137374447,
            "estimated_diameter_max": 0.0307178602
        },
        "feet": {
            "estimated_diameter_min": 72.5337327539,
            "estimated_diameter_max": 162.1903570994
        }
    },
    "is_potentially_hazardous_asteroid": false,
    "close_approach_data": [
        {
            "close_approach_date": "2010-09-29",
            "close_approach_date_full": "2010-Sep-29 04:26",
            "epoch_date_close_approach": 1285734360000,
            "relative_velocity": {
                "kilometers_per_second": "11.101147826",
                "kilometers_per_hour": "39964.132173645",
                "miles_per_hour": "24832.1575720074"
            },
            "miss_distance": {
                "astronomical": "0.0375879967",
                "lunar": "14.6217307163",
                "kilometers": "5623084.243887029",
                "miles": "3494022.5291738402"
            },
            "orbiting_body": "Earth"
        },
        {
            "close_approach_date": "2073-09-05",
            "close_approach_date_full": "2073-Sep-05 09:47",
            "epoch_date_close_approach": 3271830420000,
            "relative_velocity": {
                "kilometers_per_second": "21.0222355855",
                "kilometers_per_hour": "75680.0481079177",
                "miles_per_hour": "47024.6387812781"
            },
            "miss_distance": {
                "astronomical": "0.3600686005",
                "lunar": "140.0666855945",
                "kilometers": "53865495.688680935",
                "miles": "33470466.974769503"
            },
            "orbiting_body": "Earth"
        },
        {
            "close_approach_date": "2136-09-28",
            "close_approach_date_full": "2136-Sep-28 21:33",
            "epoch_date_close_approach": 5261923980000,
            "relative_velocity": {
                "kilometers_per_second": "11.6765644807",
                "kilometers_per_hour": "42035.6321304167",
                "miles_per_hour": "26119.3070868136"
            },
            "miss_distance": {
                "astronomical": "0.0534149974",
                "lunar": "20.7784339886",
                "kilometers": "7990769.837095538",
                "miles": "4965234.1358049044"
            },
            "orbiting_body": "Earth"
        }
    ],
    "orbital_data": {
        "orbit_id": "9",
        "orbit_determination_date": "2019-07-17 06:08:58",
        "first_observation_date": "2010-09-15",
        "last_observation_date": "2010-09-18",
        "data_arc_in_days": 3,
        "observations_used": 17,
        "orbit_uncertainty": "8",
        "minimum_orbit_intersection": ".0251371",
        "jupiter_tisserand_invariant": "3.761",
        "epoch_osculation": "2455457.5",
        "eccentricity": ".5247109364657212",
        "semi_major_axis": "1.904619190776284",
        "inclination": "2.367263731569601",
        "ascending_node_longitude": "332.7764163023247",
        "orbital_period": "960.0871582190155",
        "perihelion_distance": ".9052446715734759",
        "perihelion_argument": "81.3772401364936",
        "aphelion_distance": "2.903993709979092",
        "perihelion_time": "2455504.609467592616",
        "mean_anomaly": "342.3355534045452",
        "mean_motion": ".3749659569114627",
        "equinox": "J2000",
        "orbit_class": {
            "orbit_class_type": "APO",
            "orbit_class_description": "Near-Earth asteroid orbits which cross the Earth’s orbit similar to that of 1862 Apollo",
            "orbit_class_range": "a (semi-major axis) > 1.0 AU; q (perihelion) < 1.017 AU"
        }
    },
    "is_sentry_object": false
}